start=new Date('2023-04-04T00:00:00.000Z').valueOf();
sats=[{"TIME_SYSTEM":"UTC","BSTAR":"-0.00001754300000","COUNTRY_CODE":"US","ECCENTRICITY":"0.00012020","INCLINATION":"53.2181","REV_AT_EPOCH":"1847","CENTER_NAME":"EARTH","OBJECT_TYPE":"PAYLOAD","TLE_LINE2":"2 54790  53.2181 156.0471 0001202  82.7002 277.4127 15.08837252 18476","SEMIMAJOR_AXIS":"6917.889","SITE":"AFETR","MEAN_MOTION_DDOT":"0.0000000000000","REF_FRAME":"TEME","ELEMENT_SET_NO":"999","PERIAPSIS":"538.922","NORAD_CAT_ID":"54790","EPOCH":"2023-04-03T20:38:40.298496","MEAN_MOTION_DOT":"-0.00000567","GP_ID":"229426287","ARG_OF_PERICENTER":"82.7002","FILE":"3879321","RCS_SIZE":"LARGE","DECAY_DATE":null,"APOAPSIS":"540.585","EPHEMERIS_TYPE":"0","MEAN_MOTION":"15.08837252","CLASSIFICATION_TYPE":"U","PERIOD":"95.438","OBJECT_NAME":"STARLINK-5445","TLE_LINE1":"1 54790U 22175AJ  23093.86018864 -.00000567  00000-0 -17543-4 0  9994","MEAN_ANOMALY":"277.4127","LAUNCH_DATE":"2022-12-17","OBJECT_ID":"2022-175AJ","RA_OF_ASC_NODE":"156.0471","MEAN_ELEMENT_THEORY":"SGP4"},{"CENTER_NAME":"EARTH","TLE_LINE2":"2 54791  53.2171 156.1397 0001087 122.1589 237.9508 15.08838349 18476","SEMIMAJOR_AXIS":"6917.885","OBJECT_TYPE":"PAYLOAD","SITE":"AFETR","MEAN_MOTION_DDOT":"0.0000000000000","REF_FRAME":"TEME","ELEMENT_SET_NO":"999","PERIAPSIS":"538.998","TIME_SYSTEM":"UTC","BSTAR":"0.00005690600000","COUNTRY_CODE":"US","ECCENTRICITY":"0.00010870","INCLINATION":"53.2171","REV_AT_EPOCH":"1847","DECAY_DATE":null,"APOAPSIS":"540.502","MEAN_MOTION":"15.08838349","EPHEMERIS_TYPE":"0","PERIOD":"95.438","CLASSIFICATION_TYPE":"U","OBJECT_NAME":"STARLINK-5425","TLE_LINE1":"1 54791U 22175AK  23093.87492277  .00000618  00000-0  56906-4 0  9991","MEAN_ANOMALY":"237.9508","LAUNCH_DATE":"2022-12-17","OBJECT_ID":"2022-175AK","RA_OF_ASC_NODE":"156.1397","MEAN_ELEMENT_THEORY":"SGP4","NORAD_CAT_ID":"54791","EPOCH":"2023-04-03T20:59:53.327328","MEAN_MOTION_DOT":"0.00000618","GP_ID":"229427539","FILE":"3879321","ARG_OF_PERICENTER":"122.1589","RCS_SIZE":"LARGE"},{"MEAN_ELEMENT_THEORY":"SGP4","OBJECT_ID":"2022-175AL","RA_OF_ASC_NODE":"172.7294","MEAN_ANOMALY":"249.8356","LAUNCH_DATE":"2022-12-17","OBJECT_NAME":"STARLINK-5431","TLE_LINE1":"1 54792U 22175AL  23093.45214774  .00000339  00000-0  39405-4 0  9995","PERIOD":"95.438","CLASSIFICATION_TYPE":"U","APOAPSIS":"540.928","EPHEMERIS_TYPE":"0","MEAN_MOTION":"15.08838607","DECAY_DATE":null,"RCS_SIZE":"LARGE","GP_ID":"229364535","FILE":"3878840","ARG_OF_PERICENTER":"110.2820","EPOCH":"2023-04-03T10:51:05.564736","MEAN_MOTION_DOT":"0.00000339","NORAD_CAT_ID":"54792","PERIAPSIS":"538.571","ELEMENT_SET_NO":"999","REF_FRAME":"TEME","SITE":"AFETR","MEAN_MOTION_DDOT":"0.0000000000000","TLE_LINE2":"2 54792  53.2194 172.7294 0001704 110.2820 249.8356 15.08838607 16045","OBJECT_TYPE":"PAYLOAD","SEMIMAJOR_AXIS":"6917.885","CENTER_NAME":"EARTH","REV_AT_EPOCH":"1604","INCLINATION":"53.2194","ECCENTRICITY":"0.00017040","COUNTRY_CODE":"US","BSTAR":"0.00003940500000","TIME_SYSTEM":"UTC"},{"REF_FRAME":"TEME","MEAN_MOTION_DDOT":"0.0000000000000","SITE":"AFETR","PERIAPSIS":"539.069","ELEMENT_SET_NO":"999","TLE_LINE2":"2 54793  53.2145 146.1780 0000997  91.3014  45.3904 15.08835644  1303","SEMIMAJOR_AXIS":"6917.894","OBJECT_TYPE":"PAYLOAD","CENTER_NAME":"EARTH","ECCENTRICITY":"0.00009970","REV_AT_EPOCH":"130","INCLINATION":"53.2145","BSTAR":"0.00182150000000","TIME_SYSTEM":"UTC","COUNTRY_CODE":"US","LAUNCH_DATE":"2022-12-17","MEAN_ANOMALY":"45.3904","TLE_LINE1":"1 54793U 22175AM  23093.91667824  .00028817  00000-0  18215-2 0  9990","OBJECT_NAME":"STARLINK-5433","MEAN_ELEMENT_THEORY":"SGP4","RA_OF_ASC_NODE":"146.1780","OBJECT_ID":"2022-175AM","EPHEMERIS_TYPE":"0","MEAN_MOTION":"15.08835644","APOAPSIS":"540.448","DECAY_DATE":null,"PERIOD":"95.438","CLASSIFICATION_TYPE":"U","ARG_OF_PERICENTER":"91.3014","FILE":"3879321","GP_ID":"229426037","MEAN_MOTION_DOT":"0.00028817","EPOCH":"2023-04-03T22:00:00.999936","RCS_SIZE":"LARGE","NORAD_CAT_ID":"54793"},{"NORAD_CAT_ID":"54794","EPOCH":"2023-04-03T14:35:24.481536","MEAN_MOTION_DOT":"0.00044183","GP_ID":"229426788","ARG_OF_PERICENTER":"1.6028","FILE":"3879321","RCS_SIZE":"LARGE","DECAY_DATE":null,"APOAPSIS":"525.428","MEAN_MOTION":"15.14757226","EPHEMERIS_TYPE":"0","CLASSIFICATION_TYPE":"U","PERIOD":"95.065","OBJECT_NAME":"STARLINK-5392","TLE_LINE1":"1 54794U 22175AN  23093.60792224  .00044183  00000-0  23560-2 0  9993","MEAN_ANOMALY":"358.4983","LAUNCH_DATE":"2022-12-17","OBJECT_ID":"2022-175AN","RA_OF_ASC_NODE":"170.8796","MEAN_ELEMENT_THEORY":"SGP4","TIME_SYSTEM":"UTC","BSTAR":"0.00235600000000","COUNTRY_CODE":"US","ECCENTRICITY":"0.00053770","INCLINATION":"53.2140","REV_AT_EPOCH":"1824","CENTER_NAME":"EARTH","TLE_LINE2":"2 54794  53.2140 170.8796 0005377   1.6028 358.4983 15.14757226 18248","OBJECT_TYPE":"PAYLOAD","SEMIMAJOR_AXIS":"6899.853","SITE":"AFETR","MEAN_MOTION_DDOT":"0.0000000000000","REF_FRAME":"TEME","ELEMENT_SET_NO":"999","PERIAPSIS":"518.008"},{"COUNTRY_CODE":"US","TIME_SYSTEM":"UTC","BSTAR":"0.00004207800000","INCLINATION":"53.2180","REV_AT_EPOCH":"1847","ECCENTRICITY":"0.00012830","CENTER_NAME":"EARTH","SEMIMAJOR_AXIS":"6917.894","TLE_LINE2":"2 54795  53.2180 156.0677 0001283 100.5077 259.6060 15.08835559 18474","OBJECT_TYPE":"PAYLOAD","ELEMENT_SET_NO":"999","PERIAPSIS":"538.871","MEAN_MOTION_DDOT":"0.0000000000000","SITE":"AFETR","REF_FRAME":"TEME","NORAD_CAT_ID":"54795","RCS_SIZE":"LARGE","MEAN_MOTION_DOT":"0.00000382","EPOCH":"2023-04-03T20:43:58.665216","ARG_OF_PERICENTER":"100.5077","FILE":"3879321","GP_ID":"229427039","CLASSIFICATION_TYPE":"U","PERIOD":"95.438","DECAY_DATE":null,"EPHEMERIS_TYPE":"0","MEAN_MOTION":"15.08835559","APOAPSIS":"540.647","RA_OF_ASC_NODE":"156.0677","OBJECT_ID":"2022-175AP","MEAN_ELEMENT_THEORY":"SGP4","TLE_LINE1":"1 54795U 22175AP  23093.86387344  .00000382  00000-0  42078-4 0  9995","OBJECT_NAME":"STARLINK-5436","LAUNCH_DATE":"2022-12-17","MEAN_ANOMALY":"259.6060"},{"OBJECT_ID":"2022-175AQ","RA_OF_ASC_NODE":"157.2120","MEAN_ELEMENT_THEORY":"SGP4","OBJECT_NAME":"STARLINK-5415","TLE_LINE1":"1 54796U 22175AQ  23093.59153937  .00020505  00000-0  13022-2 0  9999","LAUNCH_DATE":"2022-12-17","MEAN_ANOMALY":"249.2229","CLASSIFICATION_TYPE":"U","PERIOD":"95.437","DECAY_DATE":null,"APOAPSIS":"540.408","MEAN_MOTION":"15.08852888","EPHEMERIS_TYPE":"0","RCS_SIZE":"LARGE","EPOCH":"2023-04-03T14:11:49.001568","MEAN_MOTION_DOT":"0.00020505","GP_ID":"229427784","FILE":"3879321","ARG_OF_PERICENTER":"110.8872","NORAD_CAT_ID":"54796","ELEMENT_SET_NO":"999","PERIAPSIS":"539.004","SITE":"AFETR","MEAN_MOTION_DDOT":"0.0000000000000","REF_FRAME":"TEME","CENTER_NAME":"EARTH","TLE_LINE2":"2 54796  53.2173 157.2120 0001015 110.8872 249.2229 15.08852888 18435","SEMIMAJOR_AXIS":"6917.841","OBJECT_TYPE":"PAYLOAD","INCLINATION":"53.2173","REV_AT_EPOCH":"1843","ECCENTRICITY":"0.00010150","COUNTRY_CODE":"US","TIME_SYSTEM":"UTC","BSTAR":"0.00130220000000"},{"PERIOD":"95.438","CLASSIFICATION_TYPE":"U","DECAY_DATE":null,"MEAN_MOTION":"15.08839845","EPHEMERIS_TYPE":"0","APOAPSIS":"540.916","RA_OF_ASC_NODE":"172.7509","OBJECT_ID":"2022-175AR","MEAN_ELEMENT_THEORY":"SGP4","TLE_LINE1":"1 54797U 22175AR  23093.45583213 -.00000141  00000-0  92392-5 0  9994","OBJECT_NAME":"STARLINK-5435","MEAN_ANOMALY":"249.7936","LAUNCH_DATE":"2022-12-17","NORAD_CAT_ID":"54797","RCS_SIZE":"LARGE","MEAN_MOTION_DOT":"-0.00000141","EPOCH":"2023-04-03T10:56:23.896032","FILE":"3878807","ARG_OF_PERICENTER":"110.3238","GP_ID":"229364062","CENTER_NAME":"EARTH","TLE_LINE2":"2 54797  53.2194 172.7509 0001691 110.3238 249.7936 15.08839845 16046","OBJECT_TYPE":"PAYLOAD","SEMIMAJOR_AXIS":"6917.881","ELEMENT_SET_NO":"999","PERIAPSIS":"538.576","MEAN_MOTION_DDOT":"0.0000000000000","SITE":"AFETR","REF_FRAME":"TEME","COUNTRY_CODE":"US","TIME_SYSTEM":"UTC","BSTAR":"0.00000923920000","INCLINATION":"53.2194","REV_AT_EPOCH":"1604","ECCENTRICITY":"0.00016910"},{"NORAD_CAT_ID":"54798","RCS_SIZE":"LARGE","MEAN_MOTION_DOT":"0.00026580","EPOCH":"2023-04-03T22:00:00.999936","ARG_OF_PERICENTER":"91.7122","FILE":"3879321","GP_ID":"229426288","CLASSIFICATION_TYPE":"U","PERIOD":"95.438","DECAY_DATE":null,"EPHEMERIS_TYPE":"0","MEAN_MOTION":"15.08830311","APOAPSIS":"540.902","RA_OF_ASC_NODE":"145.8193","OBJECT_ID":"2022-175AS","MEAN_ELEMENT_THEORY":"SGP4","TLE_LINE1":"1 54798U 22175AS  23093.91667824  .00026580  00000-0  16823-2 0  9993","OBJECT_NAME":"STARLINK-5420","MEAN_ANOMALY":"225.2394","LAUNCH_DATE":"2022-12-17","COUNTRY_CODE":"US","TIME_SYSTEM":"UTC","BSTAR":"0.00168230000000","INCLINATION":"53.2142","REV_AT_EPOCH":"130","ECCENTRICITY":"0.00016290","CENTER_NAME":"EARTH","SEMIMAJOR_AXIS":"6917.910","TLE_LINE2":"2 54798  53.2142 145.8193 0001629  91.7122 225.2394 15.08830311  1304","OBJECT_TYPE":"PAYLOAD","ELEMENT_SET_NO":"999","PERIAPSIS":"538.648","MEAN_MOTION_DDOT":"0.0000000000000","SITE":"AFETR","REF_FRAME":"TEME"},{"MEAN_MOTION":"15.08821842","EPHEMERIS_TYPE":"0","APOAPSIS":"540.729","DECAY_DATE":null,"PERIOD":"95.439","CLASSIFICATION_TYPE":"U","LAUNCH_DATE":"2022-12-17","MEAN_ANOMALY":"157.3878","TLE_LINE1":"1 54799U 22175AT  23093.91667824  .00028450  00000-0  17993-2 0  9991","OBJECT_NAME":"STARLINK-5421","MEAN_ELEMENT_THEORY":"SGP4","RA_OF_ASC_NODE":"145.9766","OBJECT_ID":"2022-175AT","NORAD_CAT_ID":"54799","FILE":"3879321","ARG_OF_PERICENTER":"79.4471","GP_ID":"229427540","MEAN_MOTION_DOT":"0.00028450","EPOCH":"2023-04-03T22:00:00.999936","RCS_SIZE":"LARGE","TLE_LINE2":"2 54799  53.2142 145.9766 0001341  79.4471 157.3878 15.08821842  1304","OBJECT_TYPE":"PAYLOAD","SEMIMAJOR_AXIS":"6917.936","CENTER_NAME":"EARTH","REF_FRAME":"TEME","MEAN_MOTION_DDOT":"0.0000000000000","SITE":"AFETR","PERIAPSIS":"538.873","ELEMENT_SET_NO":"999","BSTAR":"0.00179930000000","TIME_SYSTEM":"UTC","COUNTRY_CODE":"US","ECCENTRICITY":"0.00013410","REV_AT_EPOCH":"130","INCLINATION":"53.2142"}];
